{"epoch":1784902576,"count":18312,"objects":[{"id":"48767","name":"ONEWEB-0211","type":"PAYLOAD","l1":"1 48767U 21045A   26204.60446353  .00000003  00000-0 -24635-4 0  9997","l2":"2 48767  87.8982 251.8180 0002755  99.0113 261.1329 13.16197718249231"},{"id":"48768","name":"ONEWEB-0223","type":"PAYLOAD","l1":"1 48768U 21045B   26205.15713296 -.00000091  00000-0 -27598-3 0  9990","l2":"2 48768  87.8981 251.8255 0002394 102.0380 258.1019 13.15548329249266"},{"id":"48769","name":"ONEWEB-0230","type":"PAYLOAD","l1":"1 48769U 21045C   26205.12861360  .00000160  00000-0  39045-3 0  9999","l2":"2 48769  87.8978 251.8417 0001870  94.6894 265.4450 13.15549016249520"},{"id":"48770","name":"ONEWEB-0237","type":"PAYLOAD","l1":"1 48770U 21045D   26205.11750361  .00001425  00000-0  37493-2 0  9997","l2":"2 48770  87.8968 251.8458 0002489  91.4777 268.6638 13.15557227249243"},{"id":"48771","name":"ONEWEB-0235","type":"PAYLOAD","l1":"1 48771U 21045E   26205.16820348 -.00000006  00000-0 -51264-4 0  9996","l2":"2 48771  87.8979 251.8242 0002383 104.7327 255.4068 13.15546383249241"},{"id":"48772","name":"ONEWEB-0242","type":"PAYLOAD","l1":"1 48772U 21045F   26205.08582778 -.00000083  00000-0 -25356-3 0  9997","l2":"2 48772  87.8985 251.8385 0002045 101.7113 258.4247 13.15548795249276"},{"id":"48773","name":"ONEWEB-0241","type":"PAYLOAD","l1":"1 48773U 21045G   26205.14923768  .00000004  00000-0 -22946-4 0  9998","l2":"2 48773  87.8974 251.8402 0002403 100.5166 259.6235 13.15551749249192"},{"id":"48774","name":"ONEWEB-0243","type":"PAYLOAD","l1":"1 48774U 21045H   26205.18087839 -.00000160  00000-0 -45816-3 0  9997","l2":"2 48774  87.8975 251.8466 0002283 113.1783 246.9588 13.15547085249227"},{"id":"48775","name":"ONEWEB-0222","type":"PAYLOAD","l1":"1 48775U 21045J   26205.16426547 -.00000116  00000-0 -34257-3 0  9997","l2":"2 48775  87.8985 251.8208 0002341  99.0176 261.1219 13.15547050249262"},{"id":"48776","name":"ONEWEB-0244","type":"PAYLOAD","l1":"1 48776U 21045K   26205.11435439  .00000130  00000-0  31221-3 0  9995","l2":"2 48776  87.8983 251.8271 0002123 100.1829 259.9541 13.15548555249824"},{"id":"48777","name":"ONEWEB-0247","type":"PAYLOAD","l1":"1 48777U 21045L   26205.18722845  .00000157  00000-0  38360-3 0  9993","l2":"2 48777  87.8968 251.8395 0002401 116.2766 243.8611 13.15546757249273"},{"id":"48778","name":"ONEWEB-0245","type":"PAYLOAD","l1":"1 48778U 21045M   26205.18246811 -.00000079  00000-0 -24454-3 0  9992","l2":"2 48778  87.8979 251.8230 0002255  97.1917 262.9470 13.15548670249244"},{"id":"48779","name":"ONEWEB-0229","type":"PAYLOAD","l1":"1 48779U 21045N   26205.17773405  .00000071  00000-0  15371-3 0  9994","l2":"2 48779  87.8977 251.8217 0002030 100.2002 259.9357 13.15548110249272"},{"id":"48780","name":"ONEWEB-0228","type":"PAYLOAD","l1":"1 48780U 21045P   26205.13507697  .00000061  00000-0  12878-3 0  9998","l2":"2 48780  87.8987 251.8247 0002141  98.7037 261.4336 13.15549206249182"},{"id":"48781","name":"ONEWEB-0232","type":"PAYLOAD","l1":"1 48781U 21045Q   26205.18566344  .00000078  00000-0  17185-3 0  9992","l2":"2 48781  87.8984 251.8151 0002141  95.1249 265.0126 13.15547455249518"},{"id":"48782","name":"ONEWEB-0231","type":"PAYLOAD","l1":"1 48782U 21045R   26205.16347509 -.00000159  00000-0 -45719-3 0  9997","l2":"2 48782  87.8979 251.8304 0002279 100.0733 260.0654 13.15547615249204"},{"id":"48783","name":"ONEWEB-0234","type":"PAYLOAD","l1":"1 48783U 21045S   26205.20136955  .00000099  00000-0  22834-3 0  9998","l2":"2 48783  87.8990 251.8059 0002525  78.8722 281.2692 13.15547466249345"},{"id":"48784","name":"ONEWEB-0238","type":"PAYLOAD","l1":"1 48784U 21045T   26205.12556345  .00000906  00000-0  23735-2 0  9996","l2":"2 48784  87.8992 251.8177 0003387 102.3614 257.7895 13.15544971249238"},{"id":"48785","name":"ONEWEB-0240","type":"PAYLOAD","l1":"1 48785U 21045U   26205.22287696  .00000010  00000-0 -70310-5 0  9999","l2":"2 48785  87.8984 251.8065 0002422  97.3840 262.7565 13.15549054249270"},{"id":"48786","name":"ONEWEB-0246","type":"PAYLOAD","l1":"1 48786U 21045V   26205.14128910  .00000026  00000-0  35097-4 0  9992","l2":"2 48786  87.8988 251.8273 0002026  99.0338 261.1021 13.15548436249135"},{"id":"48787","name":"ONEWEB-0210","type":"PAYLOAD","l1":"1 48787U 21045W   26205.11593648  .00000268  00000-0  67655-3 0  9996","l2":"2 48787  87.8986 251.8295 0002132 120.6872 239.4469 13.15548907249171"},{"id":"48788","name":"ONEWEB-0214","type":"PAYLOAD","l1":"1 48788U 21045X   26205.20070725  .00000104  00000-0  24273-3 0  9991","l2":"2 48788  87.8985 251.8094 0001772 104.1943 255.9385 13.15547084249156"},{"id":"48789","name":"ONEWEB-0221","type":"PAYLOAD","l1":"1 48789U 21045Y   26205.20784097  .00000038  00000-0  67433-4 0  9998","l2":"2 48789  87.8989 251.8172 0003026 111.3236 248.8218 13.15548673249248"},{"id":"48790","name":"ONEWEB-0213","type":"PAYLOAD","l1":"1 48790U 21045Z   26205.12068776  .00000186  00000-0  45966-3 0  9990","l2":"2 48790  87.8986 251.8366 0002172 102.7641 257.3732 13.15549572249297"},{"id":"48791","name":"ONEWEB-0212","type":"PAYLOAD","l1":"1 48791U 21045AA  26205.17376799 -.00000066  00000-0 -20892-3 0  9993","l2":"2 48791  87.8980 251.8202 0002064  95.2843 264.8523 13.15547319249299"},{"id":"48792","name":"ONEWEB-0227","type":"PAYLOAD","l1":"1 48792U 21045AB  26205.17296223 -.00001258  00000-0 -33769-2 0  9997","l2":"2 48792  87.8985 251.8207 0002164  97.4801 262.6575 13.15552467249247"},{"id":"48793","name":"ONEWEB-0226","type":"PAYLOAD","l1":"1 48793U 21045AC  26205.16664125 -.00000089  00000-0 -27005-3 0  9995","l2":"2 48793  87.8980 251.8263 0002093 103.3671 256.7692 13.15548228249219"},{"id":"48794","name":"ONEWEB-0224","type":"PAYLOAD","l1":"1 48794U 21045AD  26205.20625493  .00000106  00000-0  24616-3 0  9999","l2":"2 48794  87.8979 251.8508 0002850  89.0348 271.1109 13.15549142249144"},{"id":"48795","name":"ONEWEB-0233","type":"PAYLOAD","l1":"1 48795U 21045AE  26205.13479782  .00000101  00000-0  23391-3 0  9994","l2":"2 48795  87.8976 251.8719 0002290 100.2304 259.9084 13.15547370249150"},{"id":"48796","name":"ONEWEB-0190","type":"PAYLOAD","l1":"1 48796U 21045AF  26205.19832862  .00000073  00000-0  16067-3 0  9993","l2":"2 48796  87.8982 251.8236 0002480 111.1485 248.9910 13.15548879249234"}]}