OBJECT_NAME,OBJECT_ID,EPOCH,MEAN_MOTION,ECCENTRICITY,INCLINATION,RA_OF_ASC_NODE,ARG_OF_PERICENTER,MEAN_ANOMALY,EPHEMERIS_TYPE,CLASSIFICATION_TYPE,NORAD_CAT_ID,ELEMENT_SET_NO,REV_AT_EPOCH,BSTAR,MEAN_MOTION_DOT,MEAN_MOTION_DDOT
ONEWEB-0211,2021-045A,2026-07-23T14:30:25.648992,13.16197718,.00027545,87.8982,251.8180,99.0113,261.1329,0,U,48767,999,24923,-.24635027E-4,.3E-7,0
ONEWEB-0223,2021-045B,2026-07-24T03:46:16.287744,13.15548329,.00023944,87.8981,251.8255,102.0380,258.1019,0,U,48768,999,24926,-.27597644E-3,-.91E-6,0
ONEWEB-0230,2021-045C,2026-07-24T03:05:12.215040,13.15549016,.00018702,87.8978,251.8417,94.6894,265.4450,0,U,48769,999,24952,.39045265E-3,.16E-5,0
ONEWEB-0237,2021-045D,2026-07-24T02:49:12.311904,13.15557227,.00024891,87.8968,251.8458,91.4777,268.6638,0,U,48770,999,24924,.37493464E-2,.1425E-4,0
ONEWEB-0235,2021-045E,2026-07-24T04:02:12.780672,13.15546383,.00023834,87.8979,251.8242,104.7327,255.4068,0,U,48771,999,24924,-.51264083E-4,-.6E-7,0
ONEWEB-0242,2021-045F,2026-07-24T02:03:35.520192,13.15548795,.00020449,87.8985,251.8385,101.7113,258.4247,0,U,48772,999,24927,-.25356489E-3,-.83E-6,0
ONEWEB-0241,2021-045G,2026-07-24T03:34:54.135552,13.15551749,.00024034,87.8974,251.8402,100.5166,259.6235,0,U,48773,999,24919,-.22946057E-4,.4E-7,0
ONEWEB-0243,2021-045H,2026-07-24T04:20:27.892896,13.15547085,.00022826,87.8975,251.8466,113.1783,246.9588,0,U,48774,999,24922,-.45816347E-3,-.16E-5,0
ONEWEB-0222,2021-045J,2026-07-24T03:56:32.536608,13.15547050,.00023414,87.8985,251.8208,99.0176,261.1219,0,U,48775,999,24926,-.34257303E-3,-.116E-5,0
ONEWEB-0244,2021-045K,2026-07-24T02:44:40.219296,13.15548555,.00021228,87.8983,251.8271,100.1829,259.9541,0,U,48776,999,24982,.31220585E-3,.13E-5,0
ONEWEB-0247,2021-045L,2026-07-24T04:29:36.538080,13.15546757,.00024007,87.8968,251.8395,116.2766,243.8611,0,U,48777,999,24927,.38360448E-3,.157E-5,0
ONEWEB-0245,2021-045M,2026-07-24T04:22:45.244704,13.15548670,.00022553,87.8979,251.8230,97.1917,262.9470,0,U,48778,999,24924,-.24454357E-3,-.79E-6,0
ONEWEB-0229,2021-045N,2026-07-24T04:15:56.221920,13.15548110,.00020301,87.8977,251.8217,100.2002,259.9357,0,U,48779,999,24927,.15370528E-3,.71E-6,0
ONEWEB-0228,2021-045P,2026-07-24T03:14:30.650208,13.15549206,.00021407,87.8987,251.8247,98.7037,261.4336,0,U,48780,999,24918,.12878094E-3,.61E-6,0
ONEWEB-0232,2021-045Q,2026-07-24T04:27:21.321216,13.15547455,.00021405,87.8984,251.8151,95.1249,265.0126,0,U,48781,999,24951,.17184879E-3,.78E-6,0
ONEWEB-0231,2021-045R,2026-07-24T03:55:24.247776,13.15547615,.00022787,87.8979,251.8304,100.0733,260.0654,0,U,48782,999,24920,-.45718781E-3,-.159E-5,0
ONEWEB-0234,2021-045S,2026-07-24T04:49:58.329120,13.15547466,.00025249,87.8990,251.8059,78.8722,281.2692,0,U,48783,999,24934,.22833935E-3,.99E-6,0
ONEWEB-0238,2021-045T,2026-07-24T03:00:48.682080,13.15544971,.00033871,87.8992,251.8177,102.3614,257.7895,0,U,48784,999,24923,.23735339E-2,.906E-5,0
ONEWEB-0240,2021-045U,2026-07-24T05:20:56.569344,13.15549054,.00024219,87.8984,251.8065,97.3840,262.7565,0,U,48785,999,24927,-.703103E-5,.1E-6,0
ONEWEB-0246,2021-045V,2026-07-24T03:23:27.378240,13.15548436,.0002026,87.8988,251.8273,99.0338,261.1021,0,U,48786,999,24913,.35097075E-4,.26E-6,0
ONEWEB-0210,2021-045W,2026-07-24T02:46:56.911872,13.15548907,.00021322,87.8986,251.8295,120.6872,239.4469,0,U,48787,999,24917,.6765524E-3,.268E-5,0
ONEWEB-0214,2021-045X,2026-07-24T04:49:01.106400,13.15547084,.00017724,87.8985,251.8094,104.1943,255.9385,0,U,48788,999,24915,.24273157E-3,.104E-5,0
ONEWEB-0221,2021-045Y,2026-07-24T04:59:17.459808,13.15548673,.00030258,87.8989,251.8172,111.3236,248.8218,0,U,48789,999,24924,.67433283E-4,.38E-6,0
ONEWEB-0213,2021-045Z,2026-07-24T02:53:47.422464,13.15549572,.00021717,87.8986,251.8366,102.7641,257.3732,0,U,48790,999,24929,.45965673E-3,.186E-5,0
ONEWEB-0212,2021-045AA,2026-07-24T04:10:13.554336,13.15547319,.00020635,87.8980,251.8202,95.2843,264.8523,0,U,48791,999,24929,-.20892405E-3,-.66E-6,0
ONEWEB-0227,2021-045AB,2026-07-24T04:09:03.936672,13.15552467,.00021644,87.8985,251.8207,97.4801,262.6575,0,U,48792,999,24924,-.33768582E-2,-.1258E-4,0
ONEWEB-0226,2021-045AC,2026-07-24T03:59:57.804000,13.15548228,.00020933,87.8980,251.8263,103.3671,256.7692,0,U,48793,999,24921,-.2700517E-3,-.89E-6,0
ONEWEB-0224,2021-045AD,2026-07-24T04:57:00.425952,13.15549142,.00028501,87.8979,251.8508,89.0348,271.1109,0,U,48794,999,24914,.24615782E-3,.106E-5,0
ONEWEB-0233,2021-045AE,2026-07-24T03:14:06.531648,13.15547370,.00022899,87.8976,251.8719,100.2304,259.9084,0,U,48795,999,24915,.23390759E-3,.101E-5,0
ONEWEB-0190,2021-045AF,2026-07-24T04:45:35.592768,13.15548879,.00024803,87.8982,251.8236,111.1485,248.9910,0,U,48796,999,24923,.16066653E-3,.73E-6,0
